[{"OBJECT_NAME":"QIANFAN-124","OBJECT_ID":"2026-075R","EPOCH":"2026-04-22T13:21:25.969248","MEAN_MOTION":14.22716091,"ECCENTRICITY":0.0015226,"INCLINATION":88.9902,"RA_OF_ASC_NODE":326.9831,"ARG_OF_PERICENTER":165.8426,"MEAN_ANOMALY":194.3196,"EPHEMERIS_TYPE":0,"CLASSIFICATION_TYPE":"U","NORAD_CAT_ID":68651,"ELEMENT_SET_NO":999,"REV_AT_EPOCH":213,"BSTAR":6.845944e-5,"MEAN_MOTION_DOT":1.68e-6,"MEAN_MOTION_DDOT":0},{"OBJECT_NAME":"QIANFAN-125","OBJECT_ID":"2026-075S","EPOCH":"2026-04-22T13:18:16.247808","MEAN_MOTION":14.23396044,"ECCENTRICITY":0.00149369,"INCLINATION":88.9904,"RA_OF_ASC_NODE":326.9829,"ARG_OF_PERICENTER":166.31,"MEAN_ANOMALY":193.85,"EPHEMERIS_TYPE":0,"CLASSIFICATION_TYPE":"U","NORAD_CAT_ID":68652,"ELEMENT_SET_NO":999,"REV_AT_EPOCH":213,"BSTAR":6.0438317e-5,"MEAN_MOTION_DOT":1.52e-6,"MEAN_MOTION_DDOT":0},{"OBJECT_NAME":"QIANFAN-126","OBJECT_ID":"2026-075T","EPOCH":"2026-04-22T13:13:02.869824","MEAN_MOTION":14.24950468,"ECCENTRICITY":0.001499,"INCLINATION":88.9902,"RA_OF_ASC_NODE":326.9821,"ARG_OF_PERICENTER":165.8017,"MEAN_ANOMALY":194.36,"EPHEMERIS_TYPE":0,"CLASSIFICATION_TYPE":"U","NORAD_CAT_ID":68653,"ELEMENT_SET_NO":999,"REV_AT_EPOCH":213,"BSTAR":6.9270489e-5,"MEAN_MOTION_DOT":1.77e-6,"MEAN_MOTION_DDOT":0},{"OBJECT_NAME":"CZ-8 R/B","OBJECT_ID":"2026-075U","EPOCH":"2026-04-22T13:07:20.671392","MEAN_MOTION":14.40035746,"ECCENTRICITY":0.00735667,"INCLINATION":88.9893,"RA_OF_ASC_NODE":326.9409,"ARG_OF_PERICENTER":70.9558,"MEAN_ANOMALY":289.9593,"EPHEMERIS_TYPE":0,"CLASSIFICATION_TYPE":"U","NORAD_CAT_ID":68654,"ELEMENT_SET_NO":999,"REV_AT_EPOCH":214,"BSTAR":3.6812569e-5,"MEAN_MOTION_DOT":1.36e-6,"MEAN_MOTION_DDOT":0},{"OBJECT_NAME":"HULIANWANG DIGUI-164","OBJECT_ID":"2026-076A","EPOCH":"2026-04-22T16:57:14.688000","MEAN_MOTION":13.76738626,"ECCENTRICITY":0.0001253,"INCLINATION":86.4978,"RA_OF_ASC_NODE":63.2275,"ARG_OF_PERICENTER":31.9738,"MEAN_ANOMALY":328.1501,"EPHEMERIS_TYPE":0,"CLASSIFICATION_TYPE":"U","NORAD_CAT_ID":68656,"ELEMENT_SET_NO":999,"REV_AT_EPOCH":192,"BSTAR":-0.00089923,"MEAN_MOTION_DOT":-8.66e-6,"MEAN_MOTION_DDOT":0},{"OBJECT_NAME":"HULIANWANG DIGUI-165","OBJECT_ID":"2026-076B","EPOCH":"2026-04-22T16:53:26.255904","MEAN_MOTION":13.77044581,"ECCENTRICITY":0.000281,"INCLINATION":86.5016,"RA_OF_ASC_NODE":63.2497,"ARG_OF_PERICENTER":1.1659,"MEAN_ANOMALY":358.9511,"EPHEMERIS_TYPE":0,"CLASSIFICATION_TYPE":"U","NORAD_CAT_ID":68657,"ELEMENT_SET_NO":999,"REV_AT_EPOCH":192,"BSTAR":0.00015693,"MEAN_MOTION_DOT":1.72e-6,"MEAN_MOTION_DDOT":0},{"OBJECT_NAME":"HULIANWANG DIGUI-166","OBJECT_ID":"2026-076C","EPOCH":"2026-04-22T20:18:56.025792","MEAN_MOTION":13.76778632,"ECCENTRICITY":0.0004077,"INCLINATION":86.4878,"RA_OF_ASC_NODE":63.1716,"ARG_OF_PERICENTER":105.8372,"MEAN_ANOMALY":254.3241,"EPHEMERIS_TYPE":0,"CLASSIFICATION_TYPE":"U","NORAD_CAT_ID":68658,"ELEMENT_SET_NO":999,"REV_AT_EPOCH":194,"BSTAR":-0.00052578,"MEAN_MOTION_DOT":-5.0e-6,"MEAN_MOTION_DDOT":0},{"OBJECT_NAME":"HULIANWANG DIGUI-167","OBJECT_ID":"2026-076D","EPOCH":"2026-04-22T20:14:10.173120","MEAN_MOTION":13.76873239,"ECCENTRICITY":0.0001207,"INCLINATION":86.4984,"RA_OF_ASC_NODE":63.1867,"ARG_OF_PERICENTER":51.857,"MEAN_ANOMALY":308.2702,"EPHEMERIS_TYPE":0,"CLASSIFICATION_TYPE":"U","NORAD_CAT_ID":68659,"ELEMENT_SET_NO":999,"REV_AT_EPOCH":194,"BSTAR":-6.8155e-5,"MEAN_MOTION_DOT":-5.0e-7,"MEAN_MOTION_DDOT":0},{"OBJECT_NAME":"HULIANWANG DIGUI-168","OBJECT_ID":"2026-076E","EPOCH":"2026-04-22T18:24:57.554784","MEAN_MOTION":13.77208587,"ECCENTRICITY":0.0001685,"INCLINATION":86.5004,"RA_OF_ASC_NODE":63.2069,"ARG_OF_PERICENTER":102.6535,"MEAN_ANOMALY":257.4818,"EPHEMERIS_TYPE":0,"CLASSIFICATION_TYPE":"U","NORAD_CAT_ID":68660,"ELEMENT_SET_NO":999,"REV_AT_EPOCH":192,"BSTAR":-0.00060989,"MEAN_MOTION_DOT":-5.87e-6,"MEAN_MOTION_DDOT":0},{"OBJECT_NAME":"CZ-6A R/B","OBJECT_ID":"2026-076F","EPOCH":"2026-04-22T20:27:42.564672","MEAN_MOTION":14.09391871,"ECCENTRICITY":0.0106897,"INCLINATION":86.5076,"RA_OF_ASC_NODE":62.9514,"ARG_OF_PERICENTER":67.5674,"MEAN_ANOMALY":293.6788,"EPHEMERIS_TYPE":0,"CLASSIFICATION_TYPE":"U","NORAD_CAT_ID":68661,"ELEMENT_SET_NO":999,"REV_AT_EPOCH":198,"BSTAR":-1.9095e-5,"MEAN_MOTION_DOT":-1.6e-7,"MEAN_MOTION_DDOT":0},{"OBJECT_NAME":"GUOWANG TEST OBJECT A","OBJECT_ID":"2026-078A","EPOCH":"2026-04-22T20:31:05.506176","MEAN_MOTION":13.68815824,"ECCENTRICITY":0.0008162,"INCLINATION":86.4974,"RA_OF_ASC_NODE":301.7666,"ARG_OF_PERICENTER":248.2561,"MEAN_ANOMALY":111.7729,"EPHEMERIS_TYPE":0,"CLASSIFICATION_TYPE":"U","NORAD_CAT_ID":68687,"ELEMENT_SET_NO":999,"REV_AT_EPOCH":154,"BSTAR":0.00026054,"MEAN_MOTION_DOT":2.41e-6,"MEAN_MOTION_DDOT":0},{"OBJECT_NAME":"GUOWANG TEST OBJECT B","OBJECT_ID":"2026-078B","EPOCH":"2026-04-22T20:33:03.373920","MEAN_MOTION":14.21576686,"ECCENTRICITY":0.0251444,"INCLINATION":86.5859,"RA_OF_ASC_NODE":301.5431,"ARG_OF_PERICENTER":348.7981,"MEAN_ANOMALY":10.7668,"EPHEMERIS_TYPE":0,"CLASSIFICATION_TYPE":"U","NORAD_CAT_ID":68688,"ELEMENT_SET_NO":999,"REV_AT_EPOCH":160,"BSTAR":7.7916e-5,"MEAN_MOTION_DOT":2.56e-6,"MEAN_MOTION_DDOT":0},{"OBJECT_NAME":"CYGNUS NG-24","OBJECT_ID":"2026-079A","EPOCH":"2026-04-22T12:32:19.476960","MEAN_MOTION":15.48891662,"ECCENTRICITY":0.00067665,"INCLINATION":51.632,"RA_OF_ASC_NODE":215.6072,"ARG_OF_PERICENTER":337.8366,"MEAN_ANOMALY":22.2329,"EPHEMERIS_TYPE":0,"CLASSIFICATION_TYPE":"U","NORAD_CAT_ID":68689,"ELEMENT_SET_NO":999,"REV_AT_EPOCH":172,"BSTAR":0.00014744034,"MEAN_MOTION_DOT":7.653e-5,"MEAN_MOTION_DDOT":0},{"OBJECT_NAME":"GUOWANG TEST OBJECT C","OBJECT_ID":"2026-078C","EPOCH":"2026-04-22T21:16:39.798336","MEAN_MOTION":14.61794118,"ECCENTRICITY":0.0443333,"INCLINATION":86.6405,"RA_OF_ASC_NODE":301.3323,"ARG_OF_PERICENTER":347.558,"MEAN_ANOMALY":11.4954,"EPHEMERIS_TYPE":0,"CLASSIFICATION_TYPE":"U","NORAD_CAT_ID":68690,"ELEMENT_SET_NO":999,"REV_AT_EPOCH":165,"BSTAR":0.00021074,"MEAN_MOTION_DOT":4.607e-5,"MEAN_MOTION_DDOT":0},{"OBJECT_NAME":"JILIN GAOFEN OBJECT A","OBJECT_ID":"2026-080A","EPOCH":"2026-04-22T05:43:44.246784","MEAN_MOTION":15.0834833,"ECCENTRICITY":0.00110753,"INCLINATION":97.6634,"RA_OF_ASC_NODE":187.8651,"ARG_OF_PERICENTER":252.4139,"MEAN_ANOMALY":107.588,"EPHEMERIS_TYPE":0,"CLASSIFICATION_TYPE":"U","NORAD_CAT_ID":68691,"ELEMENT_SET_NO":999,"REV_AT_EPOCH":122,"BSTAR":3.3994394e-5,"MEAN_MOTION_DOT":4.64e-6,"MEAN_MOTION_DDOT":0},{"OBJECT_NAME":"JILIN GAOFEN OBJECT B","OBJECT_ID":"2026-080B","EPOCH":"2026-04-22T05:37:48.677952","MEAN_MOTION":15.09310947,"ECCENTRICITY":0.0014142,"INCLINATION":97.6622,"RA_OF_ASC_NODE":187.8704,"ARG_OF_PERICENTER":250.2251,"MEAN_ANOMALY":109.7453,"EPHEMERIS_TYPE":0,"CLASSIFICATION_TYPE":"U","NORAD_CAT_ID":68692,"ELEMENT_SET_NO":999,"REV_AT_EPOCH":122,"BSTAR":0.00018767,"MEAN_MOTION_DOT":2.933e-5,"MEAN_MOTION_DDOT":0}]
