QIANFAN-124
1 68651U 26075R   26112.55655057  .00000168  00000+0  68459-4 0  9996
2 68651  88.9902 326.9831 0015226 165.8426 194.3196 14.22716091  2136
QIANFAN-125
1 68652U 26075S   26112.55435472  .00000152  00000+0  60438-4 0  9996
2 68652  88.9904 326.9829 0014936 166.3100 193.8500 14.23396044  2134
QIANFAN-126
1 68653U 26075T   26112.55072766  .00000177  00000+0  69270-4 0  9990
2 68653  88.9902 326.9821 0014990 165.8017 194.3600 14.24950468  2130
HULIANWANG DIGUI-164
1 68656U 26076A   26112.70642000 -.00000866  00000+0 -89923-3 0  9998
2 68656  86.4978  63.2275 0001253  31.9738 328.1501 13.76738626  1923
HULIANWANG DIGUI-165
1 68657U 26076B   26112.70377611  .00000172  00000+0  15693-3 0  9993
2 68657  86.5016  63.2497 0002810   1.1659 358.9511 13.77044581  1928
HULIANWANG DIGUI-166
1 68658U 26076C   26112.84648178 -.00000500  00000+0 -52578-3 0  9998
2 68658  86.4878  63.1716 0004077 105.8372 254.3241 13.76778632  1949
HULIANWANG DIGUI-167
1 68659U 26076D   26112.84317330 -.00000050  00000+0 -68155-4 0  9991
2 68659  86.4984  63.1867 0001207  51.8570 308.2702 13.76873239  1947
HULIANWANG DIGUI-168
1 68660U 26076E   26112.76733281 -.00000587  00000+0 -60989-3 0  9992
2 68660  86.5004  63.2069 0001685 102.6535 257.4818 13.77208587  1924
GUOWANG TEST OBJECT A
1 68687U 26078A   26112.85492484  .00000241  00000+0  26054-3 0  9990
2 68687  86.4974 301.7666 0008162 248.2561 111.7729 13.68815824  1543
CYGNUS NG-24
1 68689U 26079A   26112.52244765  .00007653  00000+0  14744-3 0  9991
2 68689  51.6320 215.6072 0006766 337.8366  22.2329 15.48891662  1720
JILIN GAOFEN OBJECT A
1 68691U 26080A   26112.23870656  .00000464  00000+0  33994-4 0  9990
2 68691  97.6634 187.8651 0011075 252.4139 107.5880 15.08348330  1222
JILIN GAOFEN OBJECT B
1 68692U 26080B   26112.23459118  .00002933  00000+0  18767-3 0  9990
2 68692  97.6622 187.8704 0014142 250.2251 109.7453 15.09310947  1222
CZ-8 R/B
1 68654U 26075U   26112.54676703  .00000136  00000+0  36813-4 0  9993
2 68654  88.9893 326.9409 0073566  70.9558 289.9593 14.40035746  2146
CZ-6A R/B
1 68661U 26076F   26112.85257598 -.00000016  00000+0 -19095-4 0  9995
2 68661  86.5076  62.9514 0106897  67.5674 293.6788 14.09391871  1988
GUOWANG TEST OBJECT B
1 68688U 26078B   26112.85628905  .00000256  00000+0  77916-4 0  9990
2 68688  86.5859 301.5431 0251444 348.7981  10.7668 14.21576686  1607
GUOWANG TEST OBJECT C
1 68690U 26078C   26112.88657174  .00004607  00000+0  21074-3 0  9993
2 68690  86.6405 301.3323 0443333 347.5580  11.4954 14.61794118  1655
